CTC1_L_00490001-01
1 14438U 26771TH  26037.47806713  .00000000  00000+0  00000-0 0  9996
2 14438 100.4000   0.0000 0000000   0.0000   0.0000 13.16009617    12
CTC1_L_00490002-01
1 14439U 23575EE  26037.47806713  .00000000  00000+0  00000-0 0  9996
2 14439 100.4000  12.0000 0000000   0.0000  48.0000 13.16009617    18
CTC1_L_00490003-01
1 14440U 24340YP  26037.47806713  .00000000  00000+0  00000-0 0  9999
2 14440 100.4000  24.0000 0000000   0.0000  96.0000 13.16009617    16
CTC1_L_00490004-01
1 14441U 25914ZF  26037.47806713  .00000000  00000+0  00000-0 0  9998
2 14441 100.4000  36.0000 0000000   0.0000 144.0000 13.16009617    14
CTC1_L_00490005-01
1 14442U 22344JW  26037.47806713  .00000000  00000+0  00000-0 0  9993
2 14442 100.4000  48.0000 0000000   0.0000 192.0000 13.16009617    11
CTC1_L_00490006-01
1 14443U 22632FG  26037.47806713  .00000000  00000+0  00000-0 0  9994
2 14443 100.4000  60.0000 0000000   0.0000 240.0000 13.16009617    10
CTC1_L_00490007-01
1 14444U 26492EX  26037.47806713  .00000000  00000+0  00000-0 0  9993
2 14444 100.4000  72.0000 0000000   0.0000 288.0000 13.16009617    16
CTC1_L_00490008-01
1 14445U 26004JZ  26037.47806713  .00000000  00000+0  00000-0 0  9993
2 14445 100.4000  84.0000 0000000   0.0000 336.0000 13.16009617    14
CTC1_L_00490009-01
1 14446U 25363CI  26037.47806713  .00000000  00000+0  00000-0 0  9991
2 14446 100.4000  96.0000 0000000   0.0000  24.0000 13.16009617    12
CTC1_L_00490010-01
1 14447U 23056BJ  26037.47806713  .00000000  00000+0  00000-0 0  9999
2 14447 100.4000 108.0000 0000000   0.0000  72.0000 13.16009617    10
CTC1_L_00490011-01
1 14448U 26059PN  26037.47806713  .00000000  00000+0  00000-0 0  9996
2 14448 100.4000 120.0000 0000000   0.0000 120.0000 13.16009617    19
CTC1_L_00490012-01
1 14449U 23438IO  26037.47806713  .00000000  00000+0  00000-0 0  9995
2 14449 100.4000 132.0000 0000000   0.0000 168.0000 13.16009617    15
CTC1_L_00490013-01
1 14450U 22203NQ  26037.47806713  .00000000  00000+0  00000-0 0  9996
2 14450 100.4000 144.0000 0000000   0.0000 216.0000 13.16009617    14
CTC1_L_00490014-01
1 14451U 25667CH  26037.47806713  .00000000  00000+0  00000-0 0  9994
2 14451 100.4000 156.0000 0000000   0.0000 264.0000 13.16009617    11
CTC1_L_00490015-01
1 14452U 24037SE  26037.47806713  .00000000  00000+0  00000-0 0  9995
2 14452 100.4000 168.0000 0000000   0.0000 312.0000 13.16009617    19
CTC1_L_00490016-01
1 14453U 26061DP  26037.47806713  .00000000  00000+0  00000-0 0  9995
2 14453 100.4000 180.0000 0000000   0.0000   0.0000 13.16009617    18
CTC1_L_00490017-01
1 14454U 26016UK  26037.47806713  .00000000  00000+0  00000-0 0  9996
2 14454 100.4000 192.0000 0000000   0.0000  48.0000 13.16009617    14
CTC1_L_00490018-01
1 14455U 25734VV  26037.47806713  .00000000  00000+0  00000-0 0  9993
2 14455 100.4000 204.0000 0000000   0.0000  96.0000 13.16009617    12
CTC1_L_00490019-01
1 14456U 23319XA  26037.47806713  .00000000  00000+0  00000-0 0  9991
2 14456 100.4000 216.0000 0000000   0.0000 144.0000 13.16009617    10
CTC1_L_00490020-01
1 14457U 22971VE  26037.47806713  .00000000  00000+0  00000-0 0  9995
2 14457 100.4000 228.0000 0000000   0.0000 192.0000 13.16009617    17
CTC1_L_00490021-01
1 14458U 23449FH  26037.47806713  .00000000  00000+0  00000-0 0  9997
2 14458 100.4000 240.0000 0000000   0.0000 240.0000 13.16009617    16
CTC1_L_00490022-01
1 14459U 23265CP  26037.47806713  .00000000  00000+0  00000-0 0  9994
2 14459 100.4000 252.0000 0000000   0.0000 288.0000 13.16009617    12
CTC1_L_00490023-01
1 14460U 24722XP  26037.47806713  .00000000  00000+0  00000-0 0  9995
2 14460 100.4000 264.0000 0000000   0.0000 336.0000 13.16009617    11
CTC1_L_00490024-01
1 14461U 23373O   26037.47806713  .00000000  00000+0  00000-0 0  9997
2 14461 100.4000 276.0000 0000000   0.0000  24.0000 13.16009617    19
CTC1_L_00490025-01
1 14462U 23987WX  26037.47806713  .00000000  00000+0  00000-0 0  9999
2 14462 100.4000 288.0000 0000000   0.0000  72.0000 13.16009617    16
CTC1_L_00490026-01
1 14463U 22430PH  26037.47806713  .00000000  00000+0  00000-0 0  9992
2 14463 100.4000 300.0000 0000000   0.0000 120.0000 13.16009617    16
CTC1_L_00490027-01
1 14464U 26105JB  26037.47806713  .00000000  00000+0  00000-0 0  9996
2 14464 100.4000 312.0000 0000000   0.0000 168.0000 13.16009617    12
CTC1_L_00490028-01
1 14465U 26513TH  26037.47806713  .00000000  00000+0  00000-0 0  9990
2 14465 100.4000 324.0000 0000000   0.0000 216.0000 13.16009617    10
CTC1_L_00490029-01
1 14466U 25071SZ  26037.47806713  .00000000  00000+0  00000-0 0  9999
2 14466 100.4000 336.0000 0000000   0.0000 264.0000 13.16009617    17
CTC1_L_00490030-01
1 14467U 26634NI  26037.47806713  .00000000  00000+0  00000-0 0  9996
2 14467 100.4000 348.0000 0000000   0.0000 312.0000 13.16009617    15
